CCSDS_OMM_VERS = 2.0
CREATION_DATE  = 
ORIGINATOR     = 

OBJECT_NAME    = ATLAS CENTAUR 2
OBJECT_ID      = 1963-047A
CENTER_NAME    = EARTH
REF_FRAME      = TEME
TIME_SYSTEM    = UTC
MEAN_ELEMENT_THEORY = SGP/SGP4

EPOCH          = 2025-12-06T06:55:12.255456
MEAN_MOTION    = 14.11704616
ECCENTRICITY   = .05491481
INCLINATION    = 30.3576
RA_OF_ASC_NODE = 357.4925
ARG_OF_PERICENTER = 337.3383
MEAN_ANOMALY   = 20.3814

EPHEMERIS_TYPE = 0
CLASSIFICATION_TYPE = U
NORAD_CAT_ID   = 694
ELEMENT_SET_NO = 999
REV_AT_EPOCH   = 11841
BSTAR          = .62598306E-3
MEAN_MOTION_DOT = .5185E-4
MEAN_MOTION_DDOT = 0

CCSDS_OMM_VERS = 2.0
CREATION_DATE  = 
ORIGINATOR     = 

OBJECT_NAME    = THOR AGENA D R/B
OBJECT_ID      = 1964-002A
CENTER_NAME    = EARTH
REF_FRAME      = TEME
TIME_SYSTEM    = UTC
MEAN_ELEMENT_THEORY = SGP/SGP4

EPOCH          = 2025-12-06T07:16:13.013760
MEAN_MOTION    = 14.33953984
ECCENTRICITY   = .00330758
INCLINATION    = 99.1217
RA_OF_ASC_NODE = 343.5736
ARG_OF_PERICENTER = 168.7797
MEAN_ANOMALY   = 191.4130

EPHEMERIS_TYPE = 0
CLASSIFICATION_TYPE = U
NORAD_CAT_ID   = 733
ELEMENT_SET_NO = 999
REV_AT_EPOCH   = 22491
BSTAR          = .19075644E-3
MEAN_MOTION_DOT = .487E-5
MEAN_MOTION_DDOT = 0

CCSDS_OMM_VERS = 2.0
CREATION_DATE  = 
ORIGINATOR     = 

OBJECT_NAME    = SL-3 R/B
OBJECT_ID      = 1964-053B
CENTER_NAME    = EARTH
REF_FRAME      = TEME
TIME_SYSTEM    = UTC
MEAN_ELEMENT_THEORY = SGP/SGP4

EPOCH          = 2025-12-06T04:58:56.851680
MEAN_MOTION    = 14.61266724
ECCENTRICITY   = .00733066
INCLINATION    = 65.0769
RA_OF_ASC_NODE = 245.2803
ARG_OF_PERICENTER = 322.5210
MEAN_ANOMALY   = 37.0791

EPHEMERIS_TYPE = 0
CLASSIFICATION_TYPE = U
NORAD_CAT_ID   = 877
ELEMENT_SET_NO = 999
REV_AT_EPOCH   = 25313
BSTAR          = .19264491E-3
MEAN_MOTION_DOT = .865E-5
MEAN_MOTION_DDOT = 0

CCSDS_OMM_VERS = 2.0
CREATION_DATE  = 
ORIGINATOR     = 

OBJECT_NAME    = SL-8 R/B
OBJECT_ID      = 1967-045B
CENTER_NAME    = EARTH
REF_FRAME      = TEME
TIME_SYSTEM    = UTC
MEAN_ELEMENT_THEORY = SGP/SGP4

EPOCH          = 2025-12-06T05:14:02.518944
MEAN_MOTION    = 14.45527318
ECCENTRICITY   = .00646278
INCLINATION    = 74.0095
RA_OF_ASC_NODE = 162.6404
ARG_OF_PERICENTER = 193.4866
MEAN_ANOMALY   = 166.4568

EPHEMERIS_TYPE = 0
CLASSIFICATION_TYPE = U
NORAD_CAT_ID   = 2802
ELEMENT_SET_NO = 999
REV_AT_EPOCH   = 7551
BSTAR          = .20189459E-3
MEAN_MOTION_DOT = .702E-5
MEAN_MOTION_DDOT = 0

CCSDS_OMM_VERS = 2.0
CREATION_DATE  = 
ORIGINATOR     = 

OBJECT_NAME    = SL-8 R/B
OBJECT_ID      = 1968-040B
CENTER_NAME    = EARTH
REF_FRAME      = TEME
TIME_SYSTEM    = UTC
MEAN_ELEMENT_THEORY = SGP/SGP4

EPOCH          = 2025-12-05T21:58:02.965440
MEAN_MOTION    = 15.02450591
ECCENTRICITY   = .00249827
INCLINATION    = 74.0293
RA_OF_ASC_NODE = 145.1868
ARG_OF_PERICENTER = 348.3901
MEAN_ANOMALY   = 11.6707

EPHEMERIS_TYPE = 0
CLASSIFICATION_TYPE = U
NORAD_CAT_ID   = 3230
ELEMENT_SET_NO = 999
REV_AT_EPOCH   = 7592
BSTAR          = .40294706E-3
MEAN_MOTION_DOT = .5342E-4
MEAN_MOTION_DDOT = 0

CCSDS_OMM_VERS = 2.0
CREATION_DATE  = 
ORIGINATOR     = 

OBJECT_NAME    = OAO 2
OBJECT_ID      = 1968-110A
CENTER_NAME    = EARTH
REF_FRAME      = TEME
TIME_SYSTEM    = UTC
MEAN_ELEMENT_THEORY = SGP/SGP4

EPOCH          = 2025-12-06T07:15:57.953376
MEAN_MOTION    = 14.47237913
ECCENTRICITY   = .00053878
INCLINATION    = 34.9938
RA_OF_ASC_NODE = 66.5938
ARG_OF_PERICENTER = 174.6212
MEAN_ANOMALY   = 185.4537

EPHEMERIS_TYPE = 0
CLASSIFICATION_TYPE = U
NORAD_CAT_ID   = 3597
ELEMENT_SET_NO = 999
REV_AT_EPOCH   = 556
BSTAR          = .17050754E-3
MEAN_MOTION_DOT = .613E-5
MEAN_MOTION_DDOT = 0

CCSDS_OMM_VERS = 2.0
CREATION_DATE  = 
ORIGINATOR     = 

OBJECT_NAME    = ISIS 1
OBJECT_ID      = 1969-009A
CENTER_NAME    = EARTH
REF_FRAME      = TEME
TIME_SYSTEM    = UTC
MEAN_ELEMENT_THEORY = SGP/SGP4

EPOCH          = 2025-12-06T05:52:08.499648
MEAN_MOTION    = 11.30350366
ECCENTRICITY   = .17068546
INCLINATION    = 88.4488
RA_OF_ASC_NODE = 165.5069
ARG_OF_PERICENTER = 277.8259
MEAN_ANOMALY   = 63.3203

EPHEMERIS_TYPE = 0
CLASSIFICATION_TYPE = U
NORAD_CAT_ID   = 3669
ELEMENT_SET_NO = 999
REV_AT_EPOCH   = 33797
BSTAR          = .26410196E-3
MEAN_MOTION_DOT = .363E-5
MEAN_MOTION_DDOT = 0

CCSDS_OMM_VERS = 2.0
CREATION_DATE  = 
ORIGINATOR     = 

OBJECT_NAME    = SERT 2
OBJECT_ID      = 1970-009A
CENTER_NAME    = EARTH
REF_FRAME      = TEME
TIME_SYSTEM    = UTC
MEAN_ELEMENT_THEORY = SGP/SGP4

EPOCH          = 2025-12-06T08:18:00.863712
MEAN_MOTION    = 13.58716447
ECCENTRICITY   = .00055581
INCLINATION    = 99.2639
RA_OF_ASC_NODE = 283.6034
ARG_OF_PERICENTER = 48.8321
MEAN_ANOMALY   = 104.9742

EPHEMERIS_TYPE = 0
CLASSIFICATION_TYPE = U
NORAD_CAT_ID   = 4327
ELEMENT_SET_NO = 999
REV_AT_EPOCH   = 76721
BSTAR          = .14583556E-3
MEAN_MOTION_DOT = .65E-6
MEAN_MOTION_DDOT = 0

CCSDS_OMM_VERS = 2.0
CREATION_DATE  = 
ORIGINATOR     = 

OBJECT_NAME    = SL-3 R/B
OBJECT_ID      = 1971-028B
CENTER_NAME    = EARTH
REF_FRAME      = TEME
TIME_SYSTEM    = UTC
MEAN_ELEMENT_THEORY = SGP/SGP4

EPOCH          = 2025-12-06T05:41:39.719328
MEAN_MOTION    = 15.53942885
ECCENTRICITY   = .00195166
INCLINATION    = 81.2367
RA_OF_ASC_NODE = 166.7945
ARG_OF_PERICENTER = 263.9571
MEAN_ANOMALY   = 95.9455

EPHEMERIS_TYPE = 0
CLASSIFICATION_TYPE = U
NORAD_CAT_ID   = 5118
ELEMENT_SET_NO = 999
REV_AT_EPOCH   = 97412
BSTAR          = .62784577E-3
MEAN_MOTION_DOT = .41004E-3
MEAN_MOTION_DDOT = 0

CCSDS_OMM_VERS = 2.0
CREATION_DATE  = 
ORIGINATOR     = 

OBJECT_NAME    = ASTEX 1
OBJECT_ID      = 1971-089A
CENTER_NAME    = EARTH
REF_FRAME      = TEME
TIME_SYSTEM    = UTC
MEAN_ELEMENT_THEORY = SGP/SGP4

EPOCH          = 2025-12-06T06:57:23.789952
MEAN_MOTION    = 14.50630845
ECCENTRICITY   = .00171273
INCLINATION    = 92.7136
RA_OF_ASC_NODE = 121.5324
ARG_OF_PERICENTER = 46.0594
MEAN_ANOMALY   = 314.2022

EPHEMERIS_TYPE = 0
CLASSIFICATION_TYPE = U
NORAD_CAT_ID   = 5560
ELEMENT_SET_NO = 999
REV_AT_EPOCH   = 84876
BSTAR          = .29985664E-3
MEAN_MOTION_DOT = .1177E-4
MEAN_MOTION_DDOT = 0

CCSDS_OMM_VERS = 2.0
CREATION_DATE  = 
ORIGINATOR     = 

OBJECT_NAME    = SL-8 R/B
OBJECT_ID      = 1971-119B
CENTER_NAME    = EARTH
REF_FRAME      = TEME
TIME_SYSTEM    = UTC
MEAN_ELEMENT_THEORY = SGP/SGP4

EPOCH          = 2025-12-05T12:13:48.564768
MEAN_MOTION    = 14.35481048
ECCENTRICITY   = .05600435
INCLINATION    = 73.8880
RA_OF_ASC_NODE = 351.4645
ARG_OF_PERICENTER = 337.1866
MEAN_ANOMALY   = 20.5245

EPHEMERIS_TYPE = 0
CLASSIFICATION_TYPE = U
NORAD_CAT_ID   = 5730
ELEMENT_SET_NO = 999
REV_AT_EPOCH   = 64196
BSTAR          = .86147645E-3
MEAN_MOTION_DOT = .16478E-3
MEAN_MOTION_DDOT = 0

CCSDS_OMM_VERS = 2.0
CREATION_DATE  = 
ORIGINATOR     = 

OBJECT_NAME    = OAO 3 (COPERNICUS)
OBJECT_ID      = 1972-065A
CENTER_NAME    = EARTH
REF_FRAME      = TEME
TIME_SYSTEM    = UTC
MEAN_ELEMENT_THEORY = SGP/SGP4

EPOCH          = 2025-12-05T16:37:38.754624
MEAN_MOTION    = 14.59896458
ECCENTRICITY   = .0005966
INCLINATION    = 35.0047
RA_OF_ASC_NODE = 112.8086
ARG_OF_PERICENTER = 113.0417
MEAN_ANOMALY   = 264.1689

EPHEMERIS_TYPE = 0
CLASSIFICATION_TYPE = U
NORAD_CAT_ID   = 6153
ELEMENT_SET_NO = 999
REV_AT_EPOCH   = 83245
BSTAR          = .16651107E-3
MEAN_MOTION_DOT = .788E-5
MEAN_MOTION_DDOT = 0

