ATLAS CENTAUR 2         
1 00694U 63047A   25340.28833629  .00005185  00000+0  62598-3 0  9995
2 00694  30.3576 357.4925 0549148 337.3383  20.3814 14.11704616118415
THOR AGENA D R/B        
1 00733U 64002A   25340.30292840  .00000487  00000+0  19076-3 0  9991
2 00733  99.1217 343.5736 0033075 168.7797 191.4130 14.33953984224914
SL-3 R/B                
1 00877U 64053B   25340.20760245  .00000865  00000+0  19264-3 0  9993
2 00877  65.0769 245.2803 0073306 322.5210  37.0791 14.61266724253135
SL-8 R/B                
1 02802U 67045B   25340.21808471  .00000702  00000+0  20189-3 0  9990
2 02802  74.0095 162.6404 0064627 193.4866 166.4568 14.45527318 75518
SL-8 R/B                
1 03230U 68040B   25339.91531210  .00005342  00000+0  40295-3 0  9996
2 03230  74.0293 145.1868 0024982 348.3901  11.6707 15.02450591 75928
OAO 2                   
1 03597U 68110A   25340.30275409  .00000613  00000+0  17051-3 0  9990
2 03597  34.9938  66.5938 0005387 174.6212 185.4537 14.47237913  5565
ISIS 1                  
1 03669U 69009A   25340.24454282  .00000363  00000+0  26410-3 0  9990
2 03669  88.4488 165.5069 1706854 277.8259  63.3203 11.30350366337973
SERT 2                  
1 04327U 70009A   25340.34584333  .00000065  00000+0  14584-3 0  9994
2 04327  99.2639 283.6034 0005558  48.8321 104.9742 13.58716447767217
SL-3 R/B                
1 05118U 71028B   25340.23726527  .00041004  00000+0  62785-3 0  9990
2 05118  81.2367 166.7945 0019516 263.9571  95.9455 15.53942885974127
ASTEX 1                 
1 05560U 71089A   25340.28985868  .00001177  00000+0  29986-3 0  9991
2 05560  92.7136 121.5324 0017127  46.0594 314.2022 14.50630845848763
SL-8 R/B                
1 05730U 71119B   25339.50958987  .00016478  00000+0  86148-3 0  9992
2 05730  73.8880 351.4645 0560043 337.1866  20.5245 14.35481048641963
OAO 3 (COPERNICUS)      
1 06153U 72065A   25339.69280966  .00000788  00000+0  16651-3 0  9997
2 06153  35.0047 112.8086 0005966 113.0417 264.1689 14.59896458832452
